NORAD_CAT_ID,OBJECT_NAME,OBJECT_TYPE,EPOCH,MEAN_MOTION,ECCENTRICITY,INCLINATION,RA_OF_ASC_NODE,ARG_OF_PERICENTER,MEAN_ANOMALY,BSTAR,MEAN_MOTION_DOT,MEAN_MOTION_DDOT,TLE_LINE0,TLE_LINE1,TLE_LINE2,SEMIMAJOR_AXIS,PERIOD,APOGEE,PERIGEE,DECAYED
52879.0,STARLINK-4139,PAYLOAD,2024-02-21 11:03:40,15.08845052,0.0001592,53.216,128.5604,81.0262,279.091,-1.3422e-05,-5.02e-06,0.0,0 STARLINK-4139,1 52879U 22062BB  24052.46088761 -.00000502  00000-0 -13422-4 0  9991,2 52879  53.2160 128.5604 0001592  81.0262 279.0910 15.08845052 93752,6917.865,95.437,540.831,538.629,0.0
52879.0,STARLINK-4139,PAYLOAD,2024-02-21 12:39:03,15.08846658,0.0001521,53.216,128.2632,87.9813,272.1353,1.8724e-05,1e-07,0.0,0 STARLINK-4139,1 52879U 22062BB  24052.52712652  .00000010  00000-0  18724-4 0  9993,2 52879  53.2160 128.2632 0001521  87.9813 272.1353 15.08846658 93274,6917.86,95.437,540.777,538.673,0.0
52879.0,STARLINK-4139,PAYLOAD,2024-02-21 22:11:22,15.08834726,0.0001686,53.2164,126.4815,88.0038,272.1147,-0.00013945,-2.506e-05,0.0,0 STARLINK-4139,1 52879U 22062BB  24052.92457075 -.00002506  00000-0 -13945-3 0  9995,2 52879  53.2164 126.4815 0001686  88.0038 272.1147 15.08834726 93335,6917.897,95.438,540.928,538.595,0.0
52879.0,STARLINK-4139,PAYLOAD,2024-02-22 04:32:55,15.08831802,0.0001714,53.216,125.2951,82.5268,277.5919,-0.00012392,-2.259e-05,0.0,0 STARLINK-4139,1 52879U 22062BB  24053.18953470 -.00002259  00000-0 -12392-3 0  9994,2 52879  53.2160 125.2951 0001714  82.5268 277.5919 15.08831802 93861,6917.905,95.438,540.956,538.585,0.0
52879.0,STARLINK-4139,PAYLOAD,2024-02-22 10:54:28,15.08833915,0.0001552,53.216,124.1009,88.1425,271.9745,-0.00021251,-3.668e-05,0.0,0 STARLINK-4139,1 52879U 22062BB  24053.45449390 -.00003668  00000-0 -21251-3 0  9994,2 52879  53.2160 124.1009 0001552  88.1425 271.9745 15.08833915 93413,6917.899,95.438,540.838,538.69,0.0
52879.0,STARLINK-4139,PAYLOAD,2024-02-23 10:45:15,15.08841653,0.0001748,53.2157,119.6414,91.2075,268.9118,0.00024192,3.564e-05,0.0,0 STARLINK-4139,1 52879U 22062BB  24054.44809902  .00003564  00000-0  24192-3 0  9993,2 52879  53.2157 119.6414 0001748  91.2075 268.9118 15.08841653 94050,6917.875,95.437,540.95,538.531,0.0
52879.0,STARLINK-4139,PAYLOAD,2024-02-24 04:14:30,15.0883636,0.0001911,53.2162,116.3708,93.8888,266.2323,0.00022637,3.316e-05,0.0,0 STARLINK-4139,1 52879U 22062BB  24055.17674522  .00003316  00000-0  22637-3 0  9999,2 52879  53.2162 116.3708 0001911  93.8888 266.2323 15.08836360 94168,6917.892,95.438,541.079,538.435,0.0
52879.0,STARLINK-4139,PAYLOAD,2024-02-24 10:36:03,15.08839377,0.0001725,53.2156,115.1794,93.2891,266.8298,0.00024878,3.673e-05,0.0,0 STARLINK-4139,1 52879U 22062BB  24055.44170411  .00003673  00000-0  24878-3 0  9992,2 52879  53.2156 115.1794 0001725  93.2891 266.8298 15.08839377 93712,6917.882,95.438,540.941,538.554,0.0
52879.0,STARLINK-4139,PAYLOAD,2024-02-25 10:26:50,15.0884193,0.0001681,53.2159,110.7195,91.4709,268.6475,5.8371e-05,6.41e-06,0.0,0 STARLINK-4139,1 52879U 22062BB  24056.43530458  .00000641  00000-0  58371-4 0  9991,2 52879  53.2159 110.7195 0001681  91.4709 268.6475 15.08841930 94356,6917.874,95.437,540.902,538.577,0.0
52879.0,STARLINK-4139,PAYLOAD,2024-02-25 13:37:36,15.08846594,0.0001662,53.2162,110.1235,92.4818,267.6364,7.5382e-05,9.12e-06,0.0,0 STARLINK-4139,1 52879U 22062BB  24056.56778174  .00000912  00000-0  75382-4 0  9996,2 52879  53.2162 110.1235 0001662  92.4818 267.6364 15.08846594 93884,6917.86,95.437,540.875,538.575,0.0
52879.0,STARLINK-4139,PAYLOAD,2024-02-25 19:59:08,15.08845011,0.0001665,53.2153,108.934,90.4351,269.6832,9.7052e-05,1.257e-05,0.0,0 STARLINK-4139,1 52879U 22062BB  24056.83274256  .00001257  00000-0  97052-4 0  9999,2 52879  53.2153 108.9340 0001665  90.4351 269.6832 15.08845011 93929,6917.865,95.437,540.882,538.578,0.0
52879.0,STARLINK-4139,PAYLOAD,2024-02-26 08:42:14,15.0884409,0.0001765,53.2157,106.5567,94.9192,265.2001,0.00014967,2.095e-05,0.0,0 STARLINK-4139,1 52879U 22062BB  24057.36266356  .00002095  00000-0  14967-3 0  9994,2 52879  53.2157 106.5567 0001765  94.9192 265.2001 15.08844090 94007,6917.868,95.437,540.954,538.512,0.0
52879.0,STARLINK-4139,PAYLOAD,2024-02-27 03:46:52,15.08836124,0.0001811,53.2157,102.9883,95.6884,264.4315,1.534e-05,-4.4e-07,0.0,0 STARLINK-4139,1 52879U 22062BB  24058.15754828 -.00000044  00000-0  15340-4 0  9998,2 52879  53.2157 102.9883 0001811  95.6884 264.4315 15.08836124 94611,6917.892,95.438,541.01,538.504,0.0
52879.0,STARLINK-4139,PAYLOAD,2024-02-27 11:43:48,15.08837374,0.0001572,53.218,101.502,93.5186,266.5986,5.4012e-05,5.72e-06,0.0,0 STARLINK-4139,1 52879U 22062BB  24058.48875046  .00000572  00000-0  54012-4 0  9994,2 52879  53.2180 101.5020 0001572  93.5186 266.5986 15.08837374 94177,6917.888,95.438,540.841,538.666,0.0
52879.0,STARLINK-4139,PAYLOAD,2024-02-27 19:40:43,15.08839577,0.000156,53.2166,100.014,90.6278,269.4893,3.7653e-05,3.11e-06,0.0,0 STARLINK-4139,1 52879U 22062BB  24058.81994948  .00000311  00000-0  37653-4 0  9997,2 52879  53.2166 100.0140 0001560  90.6278 269.4893 15.08839577 94227,6917.882,95.438,540.826,538.667,0.0
52879.0,STARLINK-4139,PAYLOAD,2024-02-28 11:34:34,15.08843809,0.0001677,53.2164,97.0399,93.0429,267.0755,5.668e-05,6.14e-06,0.0,0 STARLINK-4139,1 52879U 22062BB  24059.48234740  .00000614  00000-0  56680-4 0  9995,2 52879  53.2164  97.0399 0001677  93.0429 267.0755 15.08843809 94819,6917.869,95.437,540.894,538.574,0.0
52879.0,STARLINK-4139,PAYLOAD,2024-02-28 19:31:30,15.08839004,0.0001509,53.2168,95.5536,87.9295,272.187,0.00011133,1.484e-05,0.0,0 STARLINK-4139,1 52879U 22062BB  24059.81354904  .00001484  00000-0  11133-3 0  9996,2 52879  53.2168  95.5536 0001509  87.9295 272.1870 15.08839004 94374,6917.883,95.438,540.792,538.705,0.0
52879.0,STARLINK-4139,PAYLOAD,2024-02-29 01:53:03,15.08838831,0.0001539,53.2172,94.3645,88.2212,271.8956,8.9266e-05,1.133e-05,0.0,0 STARLINK-4139,1 52879U 22062BB  24060.07851044  .00001133  00000-0  89266-4 0  9997,2 52879  53.2172  94.3645 0001539  88.2212 271.8956 15.08838831 94900,6917.884,95.438,540.814,538.684,0.0
52879.0,STARLINK-4139,PAYLOAD,2024-02-29 09:49:58,15.08842187,0.000153,53.2169,92.8777,88.8753,271.2414,0.00011221,1.498e-05,0.0,0 STARLINK-4139,1 52879U 22062BB  24060.40970822  .00001498  00000-0  11221-3 0  9999,2 52879  53.2169  92.8777 0001530  88.8753 271.2414 15.08842187 94465,6917.874,95.437,540.797,538.68,0.0
52879.0,STARLINK-4139,PAYLOAD,2024-02-29 19:22:17,15.0884002,0.0001439,53.2158,91.0921,86.9298,273.1859,6.1006e-05,6.83e-06,0.0,0 STARLINK-4139,1 52879U 22062BB  24060.80715012  .00000683  00000-0  61006-4 0  9993,2 52879  53.2158  91.0921 0001439  86.9298 273.1859 15.08840020 94521,6917.88,95.438,540.741,538.75,0.0
52879.0,STARLINK-4139,PAYLOAD,2024-03-01 08:05:23,15.08839589,0.0001492,53.2162,88.714,88.7419,271.3744,2.0667e-06,-2.55e-06,0.0,0 STARLINK-4139,1 52879U 22062BB  24061.33707337 -.00000255  00000-0  20667-5 0  9998,2 52879  53.2162  88.7140 0001492  88.7419 271.3744 15.08839589 94606,6917.882,95.438,540.779,538.714,0.0
52879.0,STARLINK-4139,PAYLOAD,2024-03-01 19:13:04,15.08844051,0.0001477,53.2164,86.6324,94.4031,265.713,3.2591e-05,2.31e-06,0.0,0 STARLINK-4139,1 52879U 22062BB  24061.80074878  .00000231  00000-0  32591-4 0  9998,2 52879  53.2164  86.6324 0001477  94.4031 265.7130 15.08844051 94679,6917.868,95.437,540.755,538.711,0.0
52879.0,STARLINK-4139,PAYLOAD,2024-03-02 07:56:09,15.08849145,0.0001494,53.2167,84.2529,90.9283,269.1881,9.7811e-05,1.269e-05,0.0,0 STARLINK-4139,1 52879U 22062BB  24062.33066356  .00001269  00000-0  97811-4 0  9997,2 52879  53.2167  84.2529 0001494  90.9283 269.1881 15.08849145 95246,6917.852,95.437,540.751,538.684,0.0
52879.0,STARLINK-4139,PAYLOAD,2024-03-03 04:36:10,15.08835663,0.0001534,53.217,80.3876,86.2748,273.842,7.0559e-05,8.35e-06,0.0,0 STARLINK-4139,1 52879U 22062BB  24063.19179343  .00000835  00000-0  70559-4 0  9991,2 52879  53.2170  80.3876 0001534  86.2748 273.8420 15.08835663 95376,6917.894,95.438,540.82,538.697,0.0
52879.0,STARLINK-4139,PAYLOAD,2024-03-03 07:46:57,15.08832564,0.0001267,53.2168,79.7893,103.5468,256.5665,0.00013444,1.852e-05,0.0,0 STARLINK-4139,1 52879U 22062BB  24063.32427282  .00001852  00000-0  13444-3 0  9993,2 52879  53.2168  79.7893 0001267 103.5468 256.5665 15.08832564 94903,6917.903,95.438,540.645,538.892,0.0
52879.0,STARLINK-4139,PAYLOAD,2024-03-04 07:37:43,15.08844699,0.0001704,53.2181,75.3331,105.6059,254.5122,5.3714e-05,5.67e-06,0.0,0 STARLINK-4139,1 52879U 22062BB  24064.31786690  .00000567  00000-0  53714-4 0  9991,2 52879  53.2181  75.3331 0001704 105.6059 254.5122 15.08844699 95541,6917.866,95.437,540.91,538.552,0.0
52879.0,STARLINK-4139,PAYLOAD,2024-03-04 17:10:02,15.08840791,0.0001449,53.217,73.5493,99.4999,260.6157,-2.8508e-05,-7.42e-06,0.0,0 STARLINK-4139,1 52879U 22062BB  24064.71531038 -.00000742  00000-0 -28508-4 0  9999,2 52879  53.2170  73.5493 0001449  99.4999 260.6157 15.08840791 95115,6917.878,95.438,540.745,538.741,0.0
52879.0,STARLINK-4139,PAYLOAD,2024-03-05 01:06:59,15.08821269,0.0001568,53.2175,72.0619,96.9487,263.1684,-5.7189e-05,-1.198e-05,0.0,0 STARLINK-4139,1 52879U 22062BB  24065.04652700 -.00001198  00000-0 -57189-4 0  9999,2 52879  53.2175  72.0619 0001568  96.9487 263.1684 15.08821269 95651,6917.938,95.439,540.887,538.718,0.0
52879.0,STARLINK-4139,PAYLOAD,2024-03-05 10:39:18,15.08827008,0.0001642,53.218,70.2777,99.969,260.1487,-3.2745e-06,-3.4e-06,0.0,0 STARLINK-4139,1 52879U 22062BB  24065.44396585 -.00000340  00000-0 -32745-5 0  9999,2 52879  53.2180  70.2777 0001642  99.9690 260.1487 15.08827008 95222,6917.92,95.438,540.921,538.649,0.0
52879.0,STARLINK-4139,PAYLOAD,2024-03-05 17:00:51,15.08832003,0.0001643,53.2187,69.0885,100.1878,259.9299,3.1257e-05,2.09e-06,0.0,0 STARLINK-4139,1 52879U 22062BB  24065.70892389  .00000209  00000-0  31257-4 0  9999,2 52879  53.2187  69.0885 0001643 100.1878 259.9299 15.08832003 95755,6917.905,95.438,540.906,538.633,0.0
